SL-8 R/B                
1 21938U 92020B   17345.79883403  .00000060  00000-0  46422-4 0  9996
2 21938  82.9311 228.5952 0030389  57.7079   9.0298 13.75253515287406
